COP    ?    Z    ? P      d 20190222 0249 26.6700 GAU -1.00e-02 -1.00e+00 -1.00e+00 -1.00e+00
FRO    ?    Z    ? P      d 20190222 0249 26.1400 GAU  1.00e-02 -1.00e+00 -1.00e+00 -1.00e+00
HIT    ?    Z    ? P      d 20190222 0249 26.9900 GAU  3.00e-02 -1.00e+00 -1.00e+00 -1.00e+00
MAQ    ?    Z    ? P      ? 20190222 0249 25.8700 GAU -3.40e-01 -1.00e+00 -1.00e+00 -1.00e+00
