COP    ?    Z    ? P      ? 20190222 0719 32.4200 GAU -1.00e-02 -1.00e+00 -1.00e+00 -1.00e+00
FRO    ?    Z    ? P      d 20190222 0719 31.8100 GAU -1.00e+00 -1.00e+00 -1.00e+00 -1.00e+00
HIT    ?    Z    ? P      u 20190222 0719 32.6600 GAU -1.00e+00 -1.00e+00 -1.00e+00 -1.00e+00
MAQ    ?    Z    ? P      d 20190222 0719 31.6400 GAU -1.00e-02 -1.00e+00 -1.00e+00 -1.00e+00
