COP    ?    Z    ? P      d 20190222 0247 25.2300 GAU -3.00e-02 -1.00e+00 -1.00e+00 -1.00e+00
FRO    ?    Z    ? P      d 20190222 0247 24.6800 GAU  4.00e-02 -1.00e+00 -1.00e+00 -1.00e+00
HIT    ?    Z    ? P      d 20190222 0247 25.5500 GAU  2.00e-02 -1.00e+00 -1.00e+00 -1.00e+00
MAQ    ?    Z    ? P      d 20190222 0247 24.4900 GAU -1.00e-02 -1.00e+00 -1.00e+00 -1.00e+00
