COP    ?    Z    ? P      u 20190222 0728  6.4100 GAU -3.00e-02 -1.00e+00 -1.00e+00 -1.00e+00
FRO    ?    Z    ? P      u 20190222 0728  5.8600 GAU  3.00e-02 -1.00e+00 -1.00e+00 -1.00e+00
HIT    ?    Z    ? P      u 20190222 0728  6.7200 GAU  2.00e-02 -1.00e+00 -1.00e+00 -1.00e+00
MAQ    ?    Z    ? P      d 20190222 0728  5.6800 GAU -2.00e-02 -1.00e+00 -1.00e+00 -1.00e+00
