COP    ?    Z    ? P      d 20190222 0324 53.0800 GAU -4.00e-02 -1.00e+00 -1.00e+00 -1.00e+00
FRO    ?    Z    ? P      d 20190222 0324 52.5300 GAU  3.00e-02 -1.00e+00 -1.00e+00 -1.00e+00
HIT    ?    Z    ? P      d 20190222 0324 53.4000 GAU  1.00e-02 -1.00e+00 -1.00e+00 -1.00e+00
MAQ    ?    Z    ? P      d 20190222 0324 52.3600 GAU -2.00e-02 -1.00e+00 -1.00e+00 -1.00e+00
