COP    ?    Z    ? P      u 20190222 0716 47.3000 GAU -3.00e-02 -1.00e+00 -1.00e+00 -1.00e+00
FRO    ?    Z    ? P      d 20190222 0716 46.6900 GAU  4.00e-02 -1.00e+00 -1.00e+00 -1.00e+00
HIT    ?    Z    ? P      d 20190222 0716 47.5600 GAU  1.00e-02 -1.00e+00 -1.00e+00 -1.00e+00
MAQ    ?    Z    ? P      u 20190222 0716 46.4900 GAU -1.00e-02 -1.00e+00 -1.00e+00 -1.00e+00
