COP    ?    Z    ? P      u 20190222 0718 12.8600 GAU -4.00e-02 -1.00e+00 -1.00e+00 -1.00e+00
FRO    ?    Z    ? P      d 20190222 0718 12.2600 GAU -2.00e-02 -1.00e+00 -1.00e+00 -1.00e+00
HIT    ?    Z    ? P      d 20190222 0718 13.1800 GAU -1.00e+00 -1.00e+00 -1.00e+00 -1.00e+00
MAQ    ?    Z    ? P      d 20190222 0718 12.0900 GAU -6.00e-02 -1.00e+00 -1.00e+00 -1.00e+00
