COP    ?    Z    ? P      d 20190222 0444 13.0100 GAU -3.00e-02 -1.00e+00 -1.00e+00 -1.00e+00
FRO    ?    Z    ? P      d 20190222 0444 12.4700 GAU  3.00e-02 -1.00e+00 -1.00e+00 -1.00e+00
HIT    ?    Z    ? P      d 20190222 0444 13.3400 GAU  3.00e-02 -1.00e+00 -1.00e+00 -1.00e+00
MAQ    ?    Z    ? P      ? 20190222 0444 12.2500 GAU -6.00e-02 -1.00e+00 -1.00e+00 -1.00e+00
