COP    ?    Z    ? P      d 20190222 0714 43.3900 GAU -1.00e+00 -1.00e+00 -1.00e+00 -1.00e+00
FRO    ?    Z    ? P      d 20190222 0714 42.8500 GAU -1.00e+00 -1.00e+00 -1.00e+00 -1.00e+00
HIT    ?    Z    ? P      u 20190222 0714 43.7300 GAU -1.00e+00 -1.00e+00 -1.00e+00 -1.00e+00
MAQ    ?    Z    ? P      u 20190222 0714 42.8900 GAU -1.00e-02 -1.00e+00 -1.00e+00 -1.00e+00
