COP    ?    Z    ? P      d 20190222 0729  4.0300 GAU -2.00e-02 -1.00e+00 -1.00e+00 -1.00e+00
FRO    ?    Z    ? P      d 20190222 0729  3.5100 GAU  1.20e-01 -1.00e+00 -1.00e+00 -1.00e+00
HIT    ?    Z    ? P      u 20190222 0729  4.3100 GAU  1.00e-02 -1.00e+00 -1.00e+00 -1.00e+00
MAQ    ?    Z    ? P      d 20190222 0729  3.2800 GAU -1.00e-02 -1.00e+00 -1.00e+00 -1.00e+00
