COP    ?    Z    ? P      d 20190222 0453 23.4700 GAU -2.00e-02 -1.00e+00 -1.00e+00 -1.00e+00
FRO    ?    Z    ? P      u 20190222 0453 22.8600 GAU -6.00e-02 -1.00e+00 -1.00e+00 -1.00e+00
HIT    ?    Z    ? P      u 20190222 0453 23.2000 GAU -4.50e-01 -1.00e+00 -1.00e+00 -1.00e+00
MAQ    ?    Z    ? P      d 20190222 0453 22.6700 GAU -5.00e-02 -1.00e+00 -1.00e+00 -1.00e+00
