COP    ?    Z    ? P      u 20190222 0404 26.4200 GAU -1.00e-02 -1.00e+00 -1.00e+00 -1.00e+00
FRO    ?    Z    ? P      u 20190222 0404 25.8500 GAU  4.00e-02 -1.00e+00 -1.00e+00 -1.00e+00
HIT    ?    Z    ? P      d 20190222 0404 26.6700 GAU  1.00e-02 -1.00e+00 -1.00e+00 -1.00e+00
MAQ    ?    Z    ? P      d 20190222 0404 25.6200 GAU -1.00e+00 -1.00e+00 -1.00e+00 -1.00e+00
