COP    ?    Z    ? P      d 20190222 0727 12.3100 GAU -3.00e-02 -1.00e+00 -1.00e+00 -1.00e+00
FRO    ?    Z    ? P      u 20190222 0727 11.7100 GAU  3.00e-02 -1.00e+00 -1.00e+00 -1.00e+00
HIT    ?    Z    ? P      u 20190222 0727 12.5800 GAU  3.00e-02 -1.00e+00 -1.00e+00 -1.00e+00
MAQ    ?    Z    ? P      d 20190222 0727 11.5300 GAU -1.00e-02 -1.00e+00 -1.00e+00 -1.00e+00
