COP    ?    Z    ? P      ? 20190222 0454 11.1100 GAU -1.24e+00 -1.00e+00 -1.00e+00 -1.00e+00
FRO    ?    Z    ? P      d 20190222 0454 11.8400 GAU  7.00e-02 -1.00e+00 -1.00e+00 -1.00e+00
HIT    ?    Z    ? P      d 20190222 0454 12.6900 GAU  5.00e-02 -1.00e+00 -1.00e+00 -1.00e+00
MAQ    ?    Z    ? P      d 20190222 0454 11.6500 GAU -4.00e-02 -1.00e+00 -1.00e+00 -1.00e+00
