COP    ?    Z    ? P      d 20190222 0715 51.9500 GAU -3.00e-02 -1.00e+00 -1.00e+00 -1.00e+00
FRO    ?    Z    ? P      d 20190222 0715 51.4200 GAU  3.00e-02 -1.00e+00 -1.00e+00 -1.00e+00
HIT    ?    Z    ? P      d 20190222 0715 52.2600 GAU  2.00e-02 -1.00e+00 -1.00e+00 -1.00e+00
MAQ    ?    Z    ? P      ? 20190222 0715 51.2600 GAU -2.00e-02 -1.00e+00 -1.00e+00 -1.00e+00
