COP    ?    Z    ? P      d 20190222 0510  2.8700 GAU -5.00e-02 -1.00e+00 -1.00e+00 -1.00e+00
FRO    ?    Z    ? P      ? 20190222 0510  2.3500 GAU  1.00e-01 -1.00e+00 -1.00e+00 -1.00e+00
HIT    ?    Z    ? P      u 20190222 0510  3.1500 GAU  2.00e-02 -1.00e+00 -1.00e+00 -1.00e+00
MAQ    ?    Z    ? P      d 20190222 0510  2.0900 GAU -1.00e-02 -1.00e+00 -1.00e+00 -1.00e+00
