COP    ?    Z    ? P      u 20190222 0724 36.2000 GAU -8.30e-01 -1.00e+00 -1.00e+00 -1.00e+00
FRO    ?    Z    ? P      ? 20190222 0724 36.8200 GAU  1.10e-01 -1.00e+00 -1.00e+00 -1.00e+00
HIT    ?    Z    ? P      d 20190222 0724 36.4900 GAU  2.70e-01 -1.00e+00 -1.00e+00 -1.00e+00
MAQ    ?    Z    ? P      ? 20190222 0724 35.8700 GAU -1.10e-01 -1.00e+00 -1.00e+00 -1.00e+00
