COP    ?    Z    ? P      u 20190222 0721 29.4900 GAU -2.00e-02 -1.00e+00 -1.00e+00 -1.00e+00
FRO    ?    Z    ? P      u 20190222 0721 28.9400 GAU  5.00e-02 -1.00e+00 -1.00e+00 -1.00e+00
HIT    ?    Z    ? P      d 20190222 0721 29.7400 GAU  1.00e-02 -1.00e+00 -1.00e+00 -1.00e+00
MAQ    ?    Z    ? P      d 20190222 0721 28.7000 GAU -1.00e+00 -1.00e+00 -1.00e+00 -1.00e+00
