COP    ?    Z    ? P      u 20190222 0509 21.7100 GAU -2.00e-02 -1.00e+00 -1.00e+00 -1.00e+00
FRO    ?    Z    ? P      ? 20190222 0509 21.1500 GAU  1.00e-02 -1.00e+00 -1.00e+00 -1.00e+00
HIT    ?    Z    ? P      u 20190222 0509 22.0200 GAU  1.00e-02 -1.00e+00 -1.00e+00 -1.00e+00
MAQ    ?    Z    ? P      ? 20190222 0509 20.9300 GAU -1.60e-01 -1.00e+00 -1.00e+00 -1.00e+00
