COP    ?    Z    ? P      u 20190222 0732 17.9000 GAU -5.00e-02 -1.00e+00 -1.00e+00 -1.00e+00
FRO    ?    Z    ? P      d 20190222 0732 17.3200 GAU  3.00e-02 -1.00e+00 -1.00e+00 -1.00e+00
HIT    ?    Z    ? P      d 20190222 0732 18.1700 GAU  2.00e-02 -1.00e+00 -1.00e+00 -1.00e+00
MAQ    ?    Z    ? P      d 20190222 0732 17.1300 GAU -1.00e-02 -1.00e+00 -1.00e+00 -1.00e+00
