NLLOC "./loc/hood.20210606.041424.grid0" "LOCATED" "Location completed."
PUBLIC_ID None
SIGNATURE "Jay Wellik - Volcano Disaster Assistance Program   obs:./obs/20210606-041423.obs   NLLoc:v7.00.13(17Jan2022)   run:30Dec2022 00h26m31"
COMMENT "Hood, USA (initial test)"
GRID  101 101 56  -50 -50 -5.46  1 1 1 PROB_DENSITY
SEARCH OCTREE nInitial 4400 nEvaluated 20000 smallestNodeSide 0.078125/0.078125/0.078125 oct_tree_integral 3.434166e+00 scatter_volume 3.407240e+00
HYPOCENTER  x -0.195312 y -4.25781 z 2.39156  OT 23.7315  ix -1 iy -1 iz -1 MAXIMUM_LIKELIHOOD
GEOGRAPHIC  OT 2021 06 06  04 14 23.731488  Lat 45.335751 Long -121.697496 Depth 2.391563
QUALITY  Pmax 1.21494e+21 MFmin 15.826 MFmax 15.8853 RMS 0.0393494 Nphs 9 Gap 122.952 Dist 1.00649 Mamp -9.90 0 Mdur -9.90 0
VPVSRATIO  VpVsRatio -1  Npair 0  Diff -2e+30
STATISTICS  ExpectX -7.856371 Y -11.213928 Z 5.131268  CovXX 185.724 XY 159.504 XZ -55.112 YY 148.441 YZ -57.7993 ZZ 65.7442 EllAz1  320.609 Dip1  9.13267 Len1  4.38239 Az2  259.805 Dip2  -71.7599 Len2  12.5329 Len3  3.514829e+01
STAT_GEOG  ExpectLat 45.273220 Long -121.795287 Depth 5.131268
TRANSFORM  AZIMUTHAL_EQUIDIST RefEllipsoid WGS-84  LatOrig 45.374000  LongOrig -121.695000  RotCW 0.000000
QML_OriginQuality  assocPhCt 12  usedPhCt 9  assocStaCt -1  usedStaCt 9  depthPhCt -1  stdErr 0.0393494  azGap 122.952  secAzGap 157.427  gtLevel -  minDist 1.00649 maxDist 18.2022 medDist 6.02837
QML_OriginUncertainty  horUnc -1  minHorUnc 3.86432  maxHorUnc 27.4526  azMaxHorUnc 48.333
QML_ConfidenceEllipsoid  semiMajorAxisLength 35.1483  semiMinorAxisLength 4.38239  semiIntermediateAxisLength 12.5329  majorAxisPlunge -15.6506  majorAxisAzimuth 48.0275  majorAxisRotation 168.933
FOCALMECH  Hyp  45.335751 -121.697496 2.391563 Mech  0 0 0 mf  0 nObs -1
PHASE ID Ins Cmp On Pha  FM Date     HrMn   Sec     Err  ErrMag    Coda      Amp       Per  >   TTpred    Res       Weight    StaLoc(X  Y         Z)        SDist    SAzim  RAz  RDip RQual    Tcorr 
TIMB   ?    Z    ? P      ? 20210606 0414   24.4400 GAU  4.00e-02 -1.00e+00 -1.00e+00 -1.00e+00 >    0.6862   -0.0107    1.2830   -1.2018   -4.2612   -1.8690    1.0065 269.81 269.8 166.7  9     0.0331
PALM   ?    Z    ? P      ? 20210606 0414   24.8400 GAU  3.40e-01 -1.00e+00 -1.00e+00 -1.00e+00 >    0.8820    0.0204    0.4406   -0.8241   -1.7172   -2.5900    2.6173 346.10 346.1 152.3 10     0.2060
HOOD   ?    Z    ? P      u 20210606 0414   24.6000 GAU  6.00e-02 -1.00e+00 -1.00e+00 -1.00e+00 >    0.8695    0.0070    1.1923    3.4492   -5.7585   -1.5120    3.9414 112.38 112.4 134.7 10    -0.0080
LSON   ?    Z    ? P      ? 20210606 0414   24.6800 GAU  2.00e-02 -1.00e+00 -1.00e+00 -1.00e+00 >    1.0011    0.0156    1.2889    3.7397   -1.6019   -1.8810    4.7474  55.98  56.0 132.0 10    -0.0682
YOCR   ?    Z    ? P      ? 20210606 0414   24.5600 GAU -3.50e-01 -1.00e+00 -1.00e+00 -1.00e+00 >    1.1612   -0.1544    0.4013   -3.7954    0.5776   -1.9140    6.0284 323.33 323.3 125.5 10    -0.1782
BRSP   ?    Z    ? P      d 20210606 0414   25.1000 GAU  2.00e-02 -1.00e+00 -1.00e+00 -1.00e+00 >    1.3518   -0.0695    1.0500   -1.0497    3.0669   -2.0800    7.3744 353.35 353.3 121.2 10     0.0862
TDH    ?    Z    ? P      d 20210606 0414   25.2400 GAU -8.00e-02 -1.00e+00 -1.00e+00 -1.00e+00 >    1.5316    0.0077    1.1000   -7.5532   -9.3465   -1.5390    8.9462 235.33 235.3 113.7 10    -0.0308
VLL    ?    Z    ? P      d 20210606 0414   26.1100 GAU -3.00e-02 -1.00e+00 -1.00e+00 -1.00e+00 >    2.3032    0.0355    1.1777    1.1437    9.9264   -1.1950   14.2472   5.39   5.4 104.2 10     0.0398
VFP    ?    Z    ? P      u 20210606 0414   26.6100 GAU -7.00e-02 -1.00e+00 -1.00e+00 -1.00e+00 >    2.9256   -0.0550    1.0662   17.9019   -6.2094   -1.7220   18.2022  96.15  96.2 102.8 10     0.0079
HIYU   ?    Z    ? P      u 20210606 0414   26.1200 GAU -3.00e-02 -1.00e+00 -1.00e+00 -1.00e+00 >    0.0000    0.0000    0.0000 -100000000000000000000.0000 -100000000000000000000.0000 -100000000000000000000.0000    0.0000   0.00 359.0  -1.0  0    -0.0080
SHRK   ?    Z    ? P      u 20210606 0414   26.9400 GAU -1.00e+00 -1.00e+00 -1.00e+00 -1.00e+00 >    0.0000    0.0000    0.0000 -100000000000000000000.0000 -100000000000000000000.0000 -100000000000000000000.0000    0.0000   0.00 359.0  -1.0  0     0.0079
LCCR   ?    Z    ? P      u 20210606 0414   34.0800 GAU  9.00e-02 -1.00e+00 -1.00e+00 -1.00e+00 >    0.0000    0.0000    0.0000 -100000000000000000000.0000 -100000000000000000000.0000 -100000000000000000000.0000    0.0000   0.00 359.0  -1.0  0    -0.1782
END_PHASE
END_NLLOC

