NLLOC "./loc/hood.20210606.035433.grid0" "LOCATED" "Location completed."
PUBLIC_ID None
SIGNATURE "Jay Wellik - Volcano Disaster Assistance Program   obs:./obs/20210606-035431.obs   NLLoc:v7.00.13(17Jan2022)   run:30Dec2022 00h26m30"
COMMENT "Hood, USA (initial test)"
GRID  101 101 56  -50 -50 -5.46  1 1 1 PROB_DENSITY
SEARCH OCTREE nInitial 4400 nEvaluated 20024 smallestNodeSide 0.078125/0.078125/0.078125 oct_tree_integral 1.012204e+01 scatter_volume 1.012204e+01
HYPOCENTER  x 0.898438 y -3.63281 z 1.21969  OT 32.9497  ix -1 iy -1 iz -1 MAXIMUM_LIKELIHOOD
GEOGRAPHIC  OT 2021 06 06  03 54 32.949719  Lat 45.341365 Long -121.683518 Depth 1.219688
QUALITY  Pmax 2.74688e+20 MFmin 14.3429 MFmax 14.4124 RMS 0.0387116 Nphs 9 Gap 106.133 Dist 2.19222 Mamp -9.90 0 Mdur -9.90 0
VPVSRATIO  VpVsRatio -1  Npair 0  Diff -2e+30
STATISTICS  ExpectX -5.572020 Y -11.296691 Z 5.715553  CovXX 149.684 XY 117.41 XZ -40.5718 YY 147.275 YZ -84.222 ZZ 127.658 EllAz1  323.445 Dip1  21.7159 Len1  8.073 Az2  267.781 Dip2  -54.7745 Len2  18.4785 Len3  3.304948e+01
STAT_GEOG  ExpectLat 45.272498 Long -121.766127 Depth 5.715553
TRANSFORM  AZIMUTHAL_EQUIDIST RefEllipsoid WGS-84  LatOrig 45.374000  LongOrig -121.695000  RotCW 0.000000
QML_OriginQuality  assocPhCt 11  usedPhCt 9  assocStaCt -1  usedStaCt 9  depthPhCt -1  stdErr 0.0387116  azGap 106.133  secAzGap 137.323  gtLevel -  minDist 2.19222 maxDist 17.1976 medDist 6.30547
QML_OriginUncertainty  horUnc -1  minHorUnc 8.45248  maxHorUnc 24.7298  azMaxHorUnc 45.2938
QML_ConfidenceEllipsoid  semiMajorAxisLength 33.0495  semiMinorAxisLength 8.073  semiIntermediateAxisLength 18.4785  majorAxisPlunge -26.2623  majorAxisAzimuth 42.1116  majorAxisRotation 143.334
FOCALMECH  Hyp  45.341365 -121.683518 1.219688 Mech  0 0 0 mf  0 nObs -1
PHASE ID Ins Cmp On Pha  FM Date     HrMn   Sec     Err  ErrMag    Coda      Amp       Per  >   TTpred    Res       Weight    StaLoc(X  Y         Z)        SDist    SAzim  RAz  RDip RQual    Tcorr 
TIMB   ?    Z    ? P      ? 20210606 0354   33.5800 GAU -2.00e-02 -1.00e+00 -1.00e+00 -1.00e+00 >    0.5937    0.0035    1.3908   -1.2018   -4.2612   -1.8690    2.1922 253.34 253.3 144.6 10     0.0331
PALM   ?    Z    ? P      d 20210606 0354   33.8400 GAU  1.40e-01 -1.00e+00 -1.00e+00 -1.00e+00 >    0.7209   -0.0366    0.9326   -0.8241   -1.7172   -2.5900    2.5762 318.04 318.0 145.9 10     0.2060
HOOD   ?    Z    ? P      u 20210606 0354   33.6100 GAU -5.00e-02 -1.00e+00 -1.00e+00 -1.00e+00 >    0.6740   -0.0056    1.3263    3.4492   -5.7585   -1.5120    3.3204 129.81 129.8 129.4 10    -0.0080
LSON   ?    Z    ? P      ? 20210606 0354   33.6400 GAU -1.50e-01 -1.00e+00 -1.00e+00 -1.00e+00 >    0.7320    0.0265    0.8799    3.7397   -1.6019   -1.8810    3.4924  54.44  54.4 131.6 10    -0.0682
YOCR   ?    Z    ? P      ? 20210606 0354   33.8400 GAU -2.30e-01 -1.00e+00 -1.00e+00 -1.00e+00 >    1.1037   -0.0352    0.6782   -3.7954    0.5776   -1.9140    6.3055 311.89 311.9 116.4 10    -0.1782
BRSP   ?    Z    ? P      d 20210606 0354   34.1600 GAU -5.00e-02 -1.00e+00 -1.00e+00 -1.00e+00 >    1.2098   -0.0857    1.0346   -1.0497    3.0669   -2.0800    6.9772 343.79 343.8 115.3 10     0.0862
TDH    ?    Z    ? P      d 20210606 0354   34.3800 GAU -1.00e+00 -1.00e+00 -1.00e+00 -1.00e+00 >    1.6565   -0.1953    0.1879   -7.5532   -9.3465   -1.5390   10.2018 235.94 235.9 105.1 10    -0.0308
VLL    ?    Z    ? P      d 20210606 0354   35.1800 GAU -2.00e-02 -1.00e+00 -1.00e+00 -1.00e+00 >    2.1594    0.0311    1.2709    1.1437    9.9264   -1.1950   13.5614   1.04   1.0 100.1 10     0.0398
VFP    ?    Z    ? P      d 20210606 0354   35.6600 GAU  5.00e-02 -1.00e+00 -1.00e+00 -1.00e+00 >    2.7352   -0.0328    1.2989   17.9019   -6.2094   -1.7220   17.1976  98.62  98.6  99.7 10     0.0079
HIYU   ?    Z    ? P      ? 20210606 0354   35.1600 GAU -7.00e-02 -1.00e+00 -1.00e+00 -1.00e+00 >    0.0000    0.0000    0.0000 -100000000000000000000.0000 -100000000000000000000.0000 -100000000000000000000.0000    0.0000   0.00 359.0  -1.0  0    -0.0080
SHRK   ?    Z    ? P      d 20210606 0354   35.8700 GAU -7.00e-02 -1.00e+00 -1.00e+00 -1.00e+00 >    0.0000    0.0000    0.0000 -100000000000000000000.0000 -100000000000000000000.0000 -100000000000000000000.0000    0.0000   0.00 359.0  -1.0  0     0.0398
END_PHASE
END_NLLOC

