NLLOC "./loc/hood.20210618.021919.grid0" "LOCATED" "Location completed."
PUBLIC_ID None
SIGNATURE "Jay Wellik - Volcano Disaster Assistance Program   obs:./obs/20210618-021918.obs   NLLoc:v7.00.13(17Jan2022)   run:30Dec2022 00h26m32"
COMMENT "Hood, USA (initial test)"
GRID  101 101 56  -50 -50 -5.46  1 1 1 PROB_DENSITY
SEARCH OCTREE nInitial 4400 nEvaluated 20000 smallestNodeSide 0.078125/0.078125/0.078125 oct_tree_integral 8.277865e+00 scatter_volume 8.277865e+00
HYPOCENTER  x 1.05469 y -2.61719 z -2.76469  OT 19.3232  ix -1 iy -1 iz -1 MAXIMUM_LIKELIHOOD
GEOGRAPHIC  OT 2021 06 18  02 19 19.323175  Lat 45.350489 Long -121.681518 Depth -2.764687
QUALITY  Pmax 2.11249e+17 MFmin 12.8728 MFmax 12.9509 RMS 0.0387941 Nphs 8 Gap 89.3003 Dist 2.79186 Mamp -9.90 0 Mdur -9.90 0
VPVSRATIO  VpVsRatio -1  Npair 0  Diff -2e+30
STATISTICS  ExpectX -8.505135 Y -10.882390 Z 4.550841  CovXX 178.061 XY 126.489 XZ -44.5333 YY 118.661 YZ -59.6424 ZZ 140.842 EllAz1  324.419 Dip1  10.1791 Len1  7.27671 Az2  256.374 Dip2  -64.3472 Len2  19.9995 Len3  3.304041e+01
STAT_GEOG  ExpectLat 45.276190 Long -121.803575 Depth 4.550841
TRANSFORM  AZIMUTHAL_EQUIDIST RefEllipsoid WGS-84  LatOrig 45.374000  LongOrig -121.695000  RotCW 0.000000
QML_OriginQuality  assocPhCt 11  usedPhCt 8  assocStaCt -1  usedStaCt 8  depthPhCt -1  stdErr 0.0387941  azGap 89.3003  secAzGap 129.947  gtLevel -  minDist 2.79186 maxDist 17.226 medDist 5.93444
QML_OriginUncertainty  horUnc -1  minHorUnc 6.51097  maxHorUnc 25.2995  azMaxHorUnc 51.6069
QML_ConfidenceEllipsoid  semiMajorAxisLength 33.0404  semiMinorAxisLength 7.27671  semiIntermediateAxisLength 19.9995  majorAxisPlunge -23.2786  majorAxisAzimuth 49.9888  majorAxisRotation 164.087
FOCALMECH  Hyp  45.350489 -121.681518 -2.764687 Mech  0 0 0 mf  0 nObs -1
PHASE ID Ins Cmp On Pha  FM Date     HrMn   Sec     Err  ErrMag    Coda      Amp       Per  >   TTpred    Res       Weight    StaLoc(X  Y         Z)        SDist    SAzim  RAz  RDip RQual    Tcorr 
TIMB   ?    Z    ? P      ? 20210618 0219   19.8400 GAU  4.00e-02 -1.00e+00 -1.00e+00 -1.00e+00 >    0.4596    0.0242    1.3341   -1.2018   -4.2612   -1.8690    2.7919 233.92 233.9  72.3  9     0.0331
LSON   ?    Z    ? P      ? 20210618 0219   19.7800 GAU -2.40e-01 -1.00e+00 -1.00e+00 -1.00e+00 >    0.4708    0.0543    0.6124    3.7397   -1.6019   -1.8810    2.8705  69.29  69.3  72.9  9    -0.0682
HOOD   ?    Z    ? P      u 20210618 0219   19.9300 GAU -4.00e-02 -1.00e+00 -1.00e+00 -1.00e+00 >    0.6495   -0.0346    1.3124    3.4492   -5.7585   -1.5120    3.9499 142.68 142.7  72.4  9    -0.0080
YOCR   ?    Z    ? P      ? 20210618 0219   19.9200 GAU -2.70e-01 -1.00e+00 -1.00e+00 -1.00e+00 >    0.9200   -0.1450    0.5158   -3.7954    0.5776   -1.9140    5.8077 303.37 303.4  81.7  9    -0.1782
BRSP   ?    Z    ? P      ? 20210618 0219   20.3200 GAU -2.00e-02 -1.00e+00 -1.00e+00 -1.00e+00 >    0.9561   -0.0455    1.2710   -1.0497    3.0669   -2.0800    6.0612 339.68 339.7  83.5  9     0.0862
TDH    ?    Z    ? P      u 20210618 0219   20.6700 GAU -1.00e+00 -1.00e+00 -1.00e+00 -1.00e+00 >    1.7233   -0.3457    0.1786   -7.5532   -9.3465   -1.5390   10.9261 231.98 232.0  83.6  9    -0.0308
VLL    ?    Z    ? P      d 20210618 0219   21.3800 GAU  2.00e-02 -1.00e+00 -1.00e+00 -1.00e+00 >    1.9816    0.0354    1.3059    1.1437    9.9264   -1.1950   12.5439   0.41   0.4  82.8  9     0.0398
VFP    ?    Z    ? P      ? 20210618 0219   22.0400 GAU  1.00e-02 -1.00e+00 -1.00e+00 -1.00e+00 >    2.7051    0.0038    1.4699   17.9019   -6.2094   -1.7220   17.2260 102.04 102.0  86.5  9     0.0079
HIYU   ?    Z    ? P      ? 20210618 0219   21.3400 GAU -2.00e-02 -1.00e+00 -1.00e+00 -1.00e+00 >    0.0000    0.0000    0.0000 -100000000000000000000.0000 -100000000000000000000.0000 -100000000000000000000.0000    0.0000   0.00 359.0  -1.0  0    -0.0682
SHRK   ?    Z    ? P      d 20210618 0219   22.2300 GAU  4.00e-02 -1.00e+00 -1.00e+00 -1.00e+00 >    0.0000    0.0000    0.0000 -100000000000000000000.0000 -100000000000000000000.0000 -100000000000000000000.0000    0.0000   0.00 359.0  -1.0  0     0.0079
VBE    ?    Z    ? P      ? 20210618 0219   24.9000 GAU  5.80e-01 -1.00e+00 -1.00e+00 -1.00e+00 >    0.0000    0.0000    0.0000 -100000000000000000000.0000 -100000000000000000000.0000 -100000000000000000000.0000    0.0000   0.00 359.0  -1.0  0     0.0079
END_PHASE
END_NLLOC

