NLLOC "./loc/hood.20210608.082112.grid0" "LOCATED" "Location completed."
PUBLIC_ID None
SIGNATURE "Jay Wellik - Volcano Disaster Assistance Program   obs:./obs/20210608-082110.obs   NLLoc:v7.00.13(17Jan2022)   run:30Dec2022 00h26m31"
COMMENT "Hood, USA (initial test)"
GRID  101 101 56  -50 -50 -5.46  1 1 1 PROB_DENSITY
SEARCH OCTREE nInitial 4400 nEvaluated 20048 smallestNodeSide 0.156250/0.156250/0.156250 oct_tree_integral 2.184001e+01 scatter_volume 2.178110e+01
HYPOCENTER  x 0.078125 y -5.85938 z 3.99313  OT 11.0456  ix -1 iy -1 iz -1 MAXIMUM_LIKELIHOOD
GEOGRAPHIC  OT 2021 06 08  08 21 11.045595  Lat 45.321364 Long -121.694002 Depth 3.993125
QUALITY  Pmax 6.91882e+16 MFmin 13.8675 MFmax 13.9649 RMS 0.0524243 Nphs 8 Gap 154.317 Dist 2.04753 Mamp -9.90 0 Mdur -9.90 0
VPVSRATIO  VpVsRatio -1  Npair 0  Diff -2e+30
STATISTICS  ExpectX 3.700742 Y -8.462952 Z 23.780950  CovXX 81.6257 XY 3.69956 XZ 75.4299 YY 48.2263 YZ -11.9936 ZZ 242.208 EllAz1  144.638 Dip1  -14.9213 Len1  12.13 Az2  230.449 Dip2  15.3273 Len2  14.2925 Len3  3.101547e+01
STAT_GEOG  ExpectLat 45.297966 Long -121.647739 Depth 23.780950
TRANSFORM  AZIMUTHAL_EQUIDIST RefEllipsoid WGS-84  LatOrig 45.374000  LongOrig -121.695000  RotCW 0.000000
QML_OriginQuality  assocPhCt 10  usedPhCt 8  assocStaCt -1  usedStaCt 8  depthPhCt -1  stdErr 0.0524243  azGap 154.317  secAzGap 230.185  gtLevel -  minDist 2.04753 maxDist 17.8272 medDist 7.95142
QML_OriginUncertainty  horUnc -1  minHorUnc 10.4876  maxHorUnc 13.7357  azMaxHorUnc 83.7544
QML_ConfidenceEllipsoid  semiMajorAxisLength 31.0155  semiMinorAxisLength 12.13  semiIntermediateAxisLength 14.2925  majorAxisPlunge 68.345  majorAxisAzimuth 96.7943  majorAxisRotation 53.2408
FOCALMECH  Hyp  45.321364 -121.694002 3.993125 Mech  0 0 0 mf  0 nObs -1
PHASE ID Ins Cmp On Pha  FM Date     HrMn   Sec     Err  ErrMag    Coda      Amp       Per  >   TTpred    Res       Weight    StaLoc(X  Y         Z)        SDist    SAzim  RAz  RDip RQual    Tcorr 
TIMB   ?    Z    ? P      ? 20210608 0821   12.7600 GAU  8.10e-01 -1.00e+00 -1.00e+00 -1.00e+00 >    0.9733    0.7081    0.1833   -1.2018   -4.2612   -1.8690    2.0475 321.31 321.3 160.7  9     0.0331
HOOD   ?    Z    ? P      d 20210608 0821   12.0400 GAU -2.00e-02 -1.00e+00 -1.00e+00 -1.00e+00 >    1.0120   -0.0095    1.5464    3.4492   -5.7585   -1.5120    3.3726  88.29  88.3 148.5 10    -0.0080
LSON   ?    Z    ? P      u 20210608 0821   12.2800 GAU  5.00e-02 -1.00e+00 -1.00e+00 -1.00e+00 >    1.2737    0.0289    1.3440    3.7397   -1.6019   -1.8810    5.6154  40.70  40.7 136.3 10    -0.0682
YOCR   ?    Z    ? P      u 20210608 0821   12.3400 GAU -7.00e-02 -1.00e+00 -1.00e+00 -1.00e+00 >    1.4979   -0.0253    1.2924   -3.7954    0.5776   -1.9140    7.5125 328.96 329.0 128.2 10    -0.1782
TDH    ?    Z    ? P      d 20210608 0821   12.5900 GAU  1.00e-02 -1.00e+00 -1.00e+00 -1.00e+00 >    1.5752    0.0000    1.5758   -7.5532   -9.3465   -1.5390    8.3903 245.44 245.4 123.4 10    -0.0308
BRSP   ?    Z    ? P      ? 20210608 0821   12.6200 GAU  2.00e-02 -1.00e+00 -1.00e+00 -1.00e+00 >    1.7014   -0.2132    0.1441   -1.0497    3.0669   -2.0800    8.9973 352.80 352.8 124.0 10     0.0862
VLL    ?    Z    ? P      ? 20210608 0821   14.0000 GAU  3.90e-01 -1.00e+00 -1.00e+00 -1.00e+00 >    2.6105    0.3041    0.3581    1.1437    9.9264   -1.1950   15.8217   3.86   3.9 108.1 10     0.0398
VFP    ?    Z    ? P      d 20210608 0821   13.9900 GAU -2.00e-02 -1.00e+00 -1.00e+00 -1.00e+00 >    2.9351    0.0015    1.5558   17.9019   -6.2094   -1.7220   17.8272  91.12  91.1 107.7 10     0.0079
HIYU   ?    Z    ? P      u 20210608 0821   13.6000 GAU  6.00e-02 -1.00e+00 -1.00e+00 -1.00e+00 >    0.0000    0.0000    0.0000 -100000000000000000000.0000 -100000000000000000000.0000 -100000000000000000000.0000    0.0000   0.00 359.0  -1.0  0    -0.0682
SHRK   ?    Z    ? P      ? 20210608 0821   14.3400 GAU -3.00e-02 -1.00e+00 -1.00e+00 -1.00e+00 >    0.0000    0.0000    0.0000 -100000000000000000000.0000 -100000000000000000000.0000 -100000000000000000000.0000    0.0000   0.00 359.0  -1.0  0    -0.0308
END_PHASE
END_NLLOC

