NLLOC "./loc/hood.20210609.013906.grid0" "LOCATED" "Location completed."
PUBLIC_ID None
SIGNATURE "Jay Wellik - Volcano Disaster Assistance Program   obs:./obs/20210609-013904.obs   NLLoc:v7.00.13(17Jan2022)   run:30Dec2022 00h26m32"
COMMENT "Hood, USA (initial test)"
GRID  101 101 56  -50 -50 -5.46  1 1 1 PROB_DENSITY
SEARCH OCTREE nInitial 4400 nEvaluated 20008 smallestNodeSide 0.156250/0.156250/0.156250 oct_tree_integral 1.258932e+01 scatter_volume 1.251296e+01
HYPOCENTER  x -0.234375 y -3.82812 z 1.80563  OT 5.66967  ix -1 iy -1 iz -1 MAXIMUM_LIKELIHOOD
GEOGRAPHIC  OT 2021 06 09  01 39 5.669671  Lat 45.339611 Long -121.697995 Depth 1.805625
QUALITY  Pmax 9.71721e+16 MFmin 11.3647 MFmax 11.4592 RMS 0.0127679 Nphs 8 Gap 115.327 Dist 1.05993 Mamp -9.90 0 Mdur -9.90 0
VPVSRATIO  VpVsRatio -1  Npair 0  Diff -2e+30
STATISTICS  ExpectX -0.713870 Y -7.585483 Z 16.611365  CovXX 222.156 XY 103.494 XZ 80.8664 YY 126.576 YZ -1.90969 ZZ 290.928 EllAz1  144.081 Dip1  -11.5453 Len1  13.434 Az2  223.829 Dip2  41.0636 Len2  28.3841 Len3  3.566331e+01
STAT_GEOG  ExpectLat 45.305858 Long -121.704118 Depth 16.611365
TRANSFORM  AZIMUTHAL_EQUIDIST RefEllipsoid WGS-84  LatOrig 45.374000  LongOrig -121.695000  RotCW 0.000000
QML_OriginQuality  assocPhCt 10  usedPhCt 8  assocStaCt -1  usedStaCt 8  depthPhCt -1  stdErr 0.0127679  azGap 115.327  secAzGap 135.504  gtLevel -  minDist 1.05993 maxDist 18.292 medDist 5.10999
QML_OriginUncertainty  horUnc -1  minHorUnc 11.7836  maxHorUnc 25.7533  azMaxHorUnc 57.393
QML_ConfidenceEllipsoid  semiMajorAxisLength 35.6633  semiMinorAxisLength 13.434  semiIntermediateAxisLength 28.3841  majorAxisPlunge 46.6298  majorAxisAzimuth 66.5695  majorAxisRotation 79.4288
FOCALMECH  Hyp  45.339611 -121.697995 1.805625 Mech  0 0 0 mf  0 nObs -1
PHASE ID Ins Cmp On Pha  FM Date     HrMn   Sec     Err  ErrMag    Coda      Amp       Per  >   TTpred    Res       Weight    StaLoc(X  Y         Z)        SDist    SAzim  RAz  RDip RQual    Tcorr 
TIMB   ?    Z    ? P      d 20210609 0139    6.4200 GAU -1.00e+00 -1.00e+00 -1.00e+00 -1.00e+00 >    0.5995    0.1178    0.2067   -1.2018   -4.2612   -1.8690    1.0599 245.88 245.9 163.9  9     0.0331
PALM   ?    Z    ? P      ? 20210609 0139    6.6800 GAU  1.60e-01 -1.00e+00 -1.00e+00 -1.00e+00 >    0.7699    0.0344    0.8916   -0.8241   -1.7172   -2.5900    2.1918 344.39 344.4 153.5 10     0.2060
HOOD   ?    Z    ? P      d 20210609 0139    6.4800 GAU -6.00e-02 -1.00e+00 -1.00e+00 -1.00e+00 >    0.8339   -0.0155    1.3068    3.4492   -5.7585   -1.5120    4.1588 117.66 117.7 128.6 10    -0.0080
LSON   ?    Z    ? P      ? 20210609 0139    6.5200 GAU -1.40e-01 -1.00e+00 -1.00e+00 -1.00e+00 >    0.9185   -0.0000    0.9746    3.7397   -1.6019   -1.8810    4.5551  60.74  60.7 129.0 10    -0.0682
YOCR   ?    Z    ? P      ? 20210609 0139    6.5600 GAU -3.00e-01 -1.00e+00 -1.00e+00 -1.00e+00 >    1.0622    0.0063    0.5878   -3.7954    0.5776   -1.9140    5.6649 321.05 321.1 123.3 10    -0.1782
BRSP   ?    Z    ? P      ? 20210609 0139    7.0000 GAU -3.00e-02 -1.00e+00 -1.00e+00 -1.00e+00 >    1.2471   -0.0030    1.4184   -1.0497    3.0669   -2.0800    6.9431 353.26 353.3 119.2 10     0.0862
TDH    ?    Z    ? P      d 20210609 0139    7.1700 GAU  2.00e-02 -1.00e+00 -1.00e+00 -1.00e+00 >    1.5294    0.0018    1.4343   -7.5532   -9.3465   -1.5390    9.1661 232.98 233.0 110.1 10    -0.0308
VFP    ?    Z    ? P      d 20210609 0139    8.6100 GAU  9.00e-02 -1.00e+00 -1.00e+00 -1.00e+00 >    2.9205    0.0119    1.1797   17.9019   -6.2094   -1.7220   18.2920  97.48  97.5 101.0 10     0.0079
HIYU   ?    Z    ? P      u 20210609 0139    7.9600 GAU -4.00e-02 -1.00e+00 -1.00e+00 -1.00e+00 >    0.0000    0.0000    0.0000 -100000000000000000000.0000 -100000000000000000000.0000 -100000000000000000000.0000    0.0000   0.00 359.0  -1.0  0    -0.0080
SHRK   ?    Z    ? P      u 20210609 0139    8.8200 GAU  2.00e-02 -1.00e+00 -1.00e+00 -1.00e+00 >    0.0000    0.0000    0.0000 -100000000000000000000.0000 -100000000000000000000.0000 -100000000000000000000.0000    0.0000   0.00 359.0  -1.0  0     0.0862
END_PHASE
END_NLLOC

