NLLOC "./loc/hood.20210618.120742.grid0" "LOCATED" "Location completed."
PUBLIC_ID None
SIGNATURE "Jay Wellik - Volcano Disaster Assistance Program   obs:./obs/20210618-120740.obs   NLLoc:v7.00.13(17Jan2022)   run:30Dec2022 00h26m32"
COMMENT "Hood, USA (initial test)"
GRID  101 101 56  -50 -50 -5.46  1 1 1 PROB_DENSITY
SEARCH OCTREE nInitial 4400 nEvaluated 20016 smallestNodeSide 0.078125/0.078125/0.078125 oct_tree_integral 5.757903e+00 scatter_volume 5.757903e+00
HYPOCENTER  x -0.429688 y -5.11719 z 5.59469  OT 40.8829  ix -1 iy -1 iz -1 MAXIMUM_LIKELIHOOD
GEOGRAPHIC  OT 2021 06 18  12 07 40.882866  Lat 45.328031 Long -121.700490 Depth 5.594688
QUALITY  Pmax 6.18409e+20 MFmin 14.5437 MFmax 14.623 RMS 0.0308183 Nphs 9 Gap 139.914 Dist 1.15277 Mamp -9.90 0 Mdur -9.90 0
VPVSRATIO  VpVsRatio -1  Npair 0  Diff -2e+30
STATISTICS  ExpectX -6.444321 Y -11.483914 Z 10.671782  CovXX 174.235 XY 136.154 XZ -71.5534 YY 139.304 YZ -81.4246 ZZ 97.1035 EllAz1  326.087 Dip1  18.5716 Len1  7.22888 Az2  270.189 Dip2  -59.0671 Len2  13.8556 Len3  3.471795e+01
STAT_GEOG  ExpectLat 45.270809 Long -121.777259 Depth 10.671782
TRANSFORM  AZIMUTHAL_EQUIDIST RefEllipsoid WGS-84  LatOrig 45.374000  LongOrig -121.695000  RotCW 0.000000
QML_OriginQuality  assocPhCt 12  usedPhCt 9  assocStaCt -1  usedStaCt 9  depthPhCt -1  stdErr 0.0308183  azGap 139.914  secAzGap 218.561  gtLevel -  minDist 1.15277 maxDist 18.3641 medDist 6.61498
QML_OriginUncertainty  horUnc -1  minHorUnc 6.69706  maxHorUnc 26.0056  azMaxHorUnc 48.6549
QML_ConfidenceEllipsoid  semiMajorAxisLength 34.7179  semiMinorAxisLength 7.22888  semiIntermediateAxisLength 13.8556  majorAxisPlunge -23.7958  majorAxisAzimuth 47.5671  majorAxisRotation 151.165
FOCALMECH  Hyp  45.328031 -121.700490 5.594688 Mech  0 0 0 mf  0 nObs -1
PHASE ID Ins Cmp On Pha  FM Date     HrMn   Sec     Err  ErrMag    Coda      Amp       Per  >   TTpred    Res       Weight    StaLoc(X  Y         Z)        SDist    SAzim  RAz  RDip RQual    Tcorr 
TIMB   ?    Z    ? P      ? 20210618 1207   42.1200 GAU -2.00e-02 -1.00e+00 -1.00e+00 -1.00e+00 >    1.1838    0.0203    1.3105   -1.2018   -4.2612   -1.8690    1.1528 317.95 317.9 171.2  9     0.0331
PALM   ?    Z    ? P      u 20210618 1207   42.4000 GAU  1.10e-01 -1.00e+00 -1.00e+00 -1.00e+00 >    1.3905   -0.0795    0.8903   -0.8241   -1.7172   -2.5900    3.4228 353.38 353.4 157.3 10     0.2060
HOOD   ?    Z    ? P      u 20210618 1207   42.1300 GAU -6.00e-02 -1.00e+00 -1.00e+00 -1.00e+00 >    1.2730   -0.0178    1.2208    3.4492   -5.7585   -1.5120    3.9316  99.39  99.4 151.1 10    -0.0080
LSON   ?    Z    ? P      ? 20210618 1207   42.1200 GAU -2.90e-01 -1.00e+00 -1.00e+00 -1.00e+00 >    1.4504   -0.1451    0.4947    3.7397   -1.6019   -1.8810    5.4535  49.86  49.9 143.9 10    -0.0682
YOCR   ?    Z    ? P      ? 20210618 1207   42.2400 GAU -3.50e-01 -1.00e+00 -1.00e+00 -1.00e+00 >    1.5685   -0.0331    0.4634   -3.7954    0.5776   -1.9140    6.6150 329.42 329.4 138.6 10    -0.1782
BRSP   ?    Z    ? P      ? 20210618 1207   42.7200 GAU -6.00e-02 -1.00e+00 -1.00e+00 -1.00e+00 >    1.7613   -0.0103    1.2277   -1.0497    3.0669   -2.0800    8.2076 355.67 355.7 133.1 10     0.0862
TDH    ?    Z    ? P      u 20210618 1207   42.5600 GAU -1.00e-02 -1.00e+00 -1.00e+00 -1.00e+00 >    1.7136   -0.0056    1.3736   -7.5532   -9.3465   -1.5390    8.2844 239.30 239.3 130.8 10    -0.0308
VLL    ?    Z    ? P      d 20210618 1207   43.5600 GAU -1.60e-01 -1.00e+00 -1.00e+00 -1.00e+00 >    2.5993    0.0380    0.7916    1.1437    9.9264   -1.1950   15.1256   5.97   6.0 114.1 10     0.0398
VFP    ?    Z    ? P      ? 20210618 1207   43.9900 GAU  6.00e-02 -1.00e+00 -1.00e+00 -1.00e+00 >    3.0992    0.0000    1.2274   17.9019   -6.2094   -1.7220   18.3641  93.41  93.4 111.7 10     0.0079
HIYU   ?    Z    ? P      u 20210618 1207   43.6600 GAU  3.00e-02 -1.00e+00 -1.00e+00 -1.00e+00 >    0.0000    0.0000    0.0000 -100000000000000000000.0000 -100000000000000000000.0000 -100000000000000000000.0000    0.0000   0.00 359.0  -1.0  0    -0.0682
SHRK   ?    Z    ? P      ? 20210618 1207   44.3900 GAU -1.00e-02 -1.00e+00 -1.00e+00 -1.00e+00 >    0.0000    0.0000    0.0000 -100000000000000000000.0000 -100000000000000000000.0000 -100000000000000000000.0000    0.0000   0.00 359.0  -1.0  0     0.0398
LCCR   ?    Z    ? P      d 20210618 1207   51.7200 GAU  8.90e-01 -1.00e+00 -1.00e+00 -1.00e+00 >    0.0000    0.0000    0.0000 -100000000000000000000.0000 -100000000000000000000.0000 -100000000000000000000.0000    0.0000   0.00 359.0  -1.0  0    -0.1782
END_PHASE
END_NLLOC

