NLLOC "./loc/hood.20210606.044022.grid0" "LOCATED" "Location completed."
PUBLIC_ID None
SIGNATURE "Jay Wellik - Volcano Disaster Assistance Program   obs:./obs/20210606-044021.obs   NLLoc:v7.00.13(17Jan2022)   run:30Dec2022 00h26m31"
COMMENT "Hood, USA (initial test)"
GRID  101 101 56  -50 -50 -5.46  1 1 1 PROB_DENSITY
SEARCH OCTREE nInitial 4400 nEvaluated 20016 smallestNodeSide 0.078125/0.078125/0.078125 oct_tree_integral 7.269945e+00 scatter_volume 7.269945e+00
HYPOCENTER  x 0.078125 y -6.01562 z -5.22562  OT 22.2535  ix -1 iy -1 iz -1 MAXIMUM_LIKELIHOOD
GEOGRAPHIC  OT 2021 06 06  04 40 22.253514  Lat 45.319961 Long -121.694002 Depth -5.225625
QUALITY  Pmax 2.56862e+17 MFmin 12.4557 MFmax 12.5488 RMS 0.0394076 Nphs 8 Gap 155.797 Dist 2.17169 Mamp -9.90 0 Mdur -9.90 0
VPVSRATIO  VpVsRatio -1  Npair 0  Diff -2e+30
STATISTICS  ExpectX -7.099250 Y -10.678318 Z 8.028240  CovXX 153.692 XY 83.3985 XZ -89.005 YY 131.908 YZ -67.7367 ZZ 179.395 EllAz1  132.665 Dip1  9.10319 Len1  14.2387 Az2  211.84 Dip2  -49.5303 Len2  17.8479 Len3  3.346853e+01
STAT_GEOG  ExpectLat 45.278039 Long -121.785630 Depth 8.028240
TRANSFORM  AZIMUTHAL_EQUIDIST RefEllipsoid WGS-84  LatOrig 45.374000  LongOrig -121.695000  RotCW 0.000000
QML_OriginQuality  assocPhCt 10  usedPhCt 8  assocStaCt -1  usedStaCt 8  depthPhCt -1  stdErr 0.0394076  azGap 155.797  secAzGap 233.265  gtLevel -  minDist 2.17169 maxDist 17.8249 medDist 6.69081
QML_OriginUncertainty  horUnc -1  minHorUnc 11.6187  maxHorUnc 22.8448  azMaxHorUnc 48.7205
QML_ConfidenceEllipsoid  semiMajorAxisLength 33.4685  semiMinorAxisLength 14.2387  semiIntermediateAxisLength 17.8479  majorAxisPlunge -39.0108  majorAxisAzimuth 50.1233  majorAxisRotation 45.059
FOCALMECH  Hyp  45.319961 -121.694002 -5.225625 Mech  0 0 0 mf  0 nObs -1
PHASE ID Ins Cmp On Pha  FM Date     HrMn   Sec     Err  ErrMag    Coda      Amp       Per  >   TTpred    Res       Weight    StaLoc(X  Y         Z)        SDist    SAzim  RAz  RDip RQual    Tcorr 
TIMB   ?    Z    ? P      ? 20210606 0440   22.8800 GAU -1.00e-01 -1.00e+00 -1.00e+00 -1.00e+00 >    0.6267   -0.0332    1.0495   -1.2018   -4.2612   -1.8690    2.1717 323.89 323.9  32.9 10     0.0331
HOOD   ?    Z    ? P      u 20210606 0440   23.0300 GAU -5.00e-02 -1.00e+00 -1.00e+00 -1.00e+00 >    0.7872   -0.0027    1.3120    3.4492   -5.7585   -1.5120    3.3809  85.64  85.6  42.3 10    -0.0080
PALM   ?    Z    ? P      d 20210606 0440   23.2400 GAU  1.40e-01 -1.00e+00 -1.00e+00 -1.00e+00 >    0.8029   -0.0225    0.8965   -0.8241   -1.7172   -2.5900    4.3921 348.15 348.1  59.1 10     0.2060
LSON   ?    Z    ? P      u 20210606 0440   23.2400 GAU -1.00e-02 -1.00e+00 -1.00e+00 -1.00e+00 >    1.0406    0.0141    1.3879    3.7397   -1.6019   -1.8810    5.7348  39.68  39.7  59.7 10    -0.0682
YOCR   ?    Z    ? P      ? 20210606 0440   23.1800 GAU -2.60e-01 -1.00e+00 -1.00e+00 -1.00e+00 >    1.3062   -0.2014    0.4734   -3.7954    0.5776   -1.9140    7.6468 329.57 329.6  66.6 10    -0.1782
TDH    ?    Z    ? P      u 20210606 0440   23.6500 GAU  3.00e-02 -1.00e+00 -1.00e+00 -1.00e+00 >    1.4273    0.0000    1.3841   -7.5532   -9.3465   -1.5390    8.3266 246.42 246.4  66.1 10    -0.0308
BRSP   ?    Z    ? P      ? 20210606 0440   24.3400 GAU  7.10e-01 -1.00e+00 -1.00e+00 -1.00e+00 >    1.5169    0.4834    0.1988   -1.0497    3.0669   -2.0800    9.1523 352.92 352.9  71.0 10     0.0862
VFP    ?    Z    ? P      d 20210606 0440   25.0900 GAU  5.00e-02 -1.00e+00 -1.00e+00 -1.00e+00 >    2.8479   -0.0193    1.2978   17.9019   -6.2094   -1.7220   17.8249  90.62  90.6  78.8 10     0.0079
HIYU   ?    Z    ? P      u 20210606 0440   24.5200 GAU -5.00e-02 -1.00e+00 -1.00e+00 -1.00e+00 >    0.0000    0.0000    0.0000 -100000000000000000000.0000 -100000000000000000000.0000 -100000000000000000000.0000    0.0000   0.00 359.0  -1.0  0    -0.0080
SHRK   ?    Z    ? P      ? 20210606 0440   25.4000 GAU  1.00e-02 -1.00e+00 -1.00e+00 -1.00e+00 >    0.0000    0.0000    0.0000 -100000000000000000000.0000 -100000000000000000000.0000 -100000000000000000000.0000    0.0000   0.00 359.0  -1.0  0     0.2060
END_PHASE
END_NLLOC

