NLLOC "./loc/hood.19000101.000001.grid0" "LOCATED" "Location completed."
PUBLIC_ID EQ001
SIGNATURE "Jay Wellik - Volcano Disaster Assistance Program   obs:./obs/synth.obs   NLLoc:v7.00.13(17Jan2022)   run:30Dec2022 00h26m33"
COMMENT "Hood, USA (initial test)"
GRID  101 101 56  -50 -50 -5.46  1 1 1 PROB_DENSITY
SEARCH OCTREE nInitial 4400 nEvaluated 20008 smallestNodeSide 0.039062/0.039062/0.039062 oct_tree_integral 2.870933e-01 scatter_volume 2.848281e-01
HYPOCENTER  x -0.0390625 y 0.351562 z 10.6728  OT -0.0807958  ix -1 iy -1 iz -1 MAXIMUM_LIKELIHOOD
GEOGRAPHIC  OT 1900 01 01  00 00 -0.080796  Lat 45.377158 Long -121.695500 Depth 10.672812
QUALITY  Pmax 6.1306e+40 MFmin 35.5426 MFmax 35.81 RMS 0.0275238 Nphs 14 Gap 196.644 Dist 2.21268 Mamp -9.90 0 Mdur -9.90 0
VPVSRATIO  VpVsRatio 2  Npair 7  Diff 1.1143
STATISTICS  ExpectX -0.034984 Y 0.306381 Z 10.655274  CovXX 0.0461441 XY -0.0355348 XZ -0.0244849 YY 0.227137 YZ 0.0440865 ZZ 0.0812889 EllAz1  265.067 Dip1  -22.9631 Len1  0.339564 Az2  45.9748 Dip2  -61.3686 Len2  0.511696 Len3  9.351451e-01
STAT_GEOG  ExpectLat 45.376752 Long -121.695447 Depth 10.655274
TRANSFORM  AZIMUTHAL_EQUIDIST RefEllipsoid WGS-84  LatOrig 45.374000  LongOrig -121.695000  RotCW 0.000000
QML_OriginQuality  assocPhCt 14  usedPhCt 14  assocStaCt -1  usedStaCt 7  depthPhCt -1  stdErr 0.0275238  azGap 196.644  secAzGap 196.644  gtLevel -  minDist 2.21268 maxDist 19.103 medDist 4.75705
QML_OriginUncertainty  horUnc -1  minHorUnc 0.301098  maxHorUnc 0.733407  azMaxHorUnc 169.281
QML_ConfidenceEllipsoid  semiMajorAxisLength 0.935145  semiMinorAxisLength 0.339564  semiIntermediateAxisLength 0.511696  majorAxisPlunge -16.1533  majorAxisAzimuth 168.017  majorAxisRotation 332.26
FOCALMECH  Hyp  45.377158 -121.695500 10.672812 Mech  0 0 0 mf  0 nObs -1
PHASE ID Ins Cmp On Pha  FM Date     HrMn   Sec     Err  ErrMag    Coda      Amp       Per  >   TTpred    Res       Weight    StaLoc(X  Y         Z)        SDist    SAzim  RAz  RDip RQual    Tcorr 
PALM   ?    ?    ? P      U 19000101 0000    1.9910 GAU  0.00e+00 -1.00e+00 -1.00e+00 -1.00e+00 >    2.0994   -0.2337    0.0139   -0.8241   -1.7172   -2.5900    2.2127 200.78 200.8 170.2 10     0.2060
PALM   ?    ?    ? S      ? 19000101 0000    3.4445 GAU  0.00e+00 -1.00e+00 -1.00e+00 -1.00e+00 >    3.5270   -0.0033    1.2239   -0.8241   -1.7172   -2.5900    2.2127 200.78 200.8 170.2 10     0.0015
YOCR   ?    ?    ? P      D 19000101 0000    1.9571 GAU  0.00e+00 -1.00e+00 -1.00e+00 -1.00e+00 >    2.0508    0.1653    0.1078   -3.7954    0.5776   -1.9140    3.7631 273.44 273.4 162.9 10    -0.1782
YOCR   ?    ?    ? S      ? 19000101 0000    3.3857 GAU  0.00e+00 -1.00e+00 -1.00e+00 -1.00e+00 >    3.4454   -0.0130    1.2078   -3.7954    0.5776   -1.9140    3.7631 273.44 273.4 162.9 10     0.0341
LSON   ?    ?    ? P      D 19000101 0000    1.9635 GAU  0.00e+00 -1.00e+00 -1.00e+00 -1.00e+00 >    2.0692    0.0433    1.0212    3.7397   -1.6019   -1.8810    4.2538 117.34 117.3 160.7 10    -0.0682
LSON   ?    ?    ? S      ? 19000101 0000    3.3968 GAU  0.00e+00 -1.00e+00 -1.00e+00 -1.00e+00 >    3.4762   -0.0029    1.2241    3.7397   -1.6019   -1.8810    4.2538 117.34 117.3 160.7 10     0.0042
TIMB   ?    ?    ? P      U 19000101 0000    1.9806 GAU  0.00e+00 -1.00e+00 -1.00e+00 -1.00e+00 >    2.0940   -0.0656    0.8223   -1.2018   -4.2612   -1.8690    4.7570 194.15 194.1 158.6 10     0.0331
TIMB   ?    ?    ? S      ? 19000101 0000    3.4264 GAU  0.00e+00 -1.00e+00 -1.00e+00 -1.00e+00 >    3.5178    0.0039    1.2220   -1.2018   -4.2612   -1.8690    4.7570 194.15 194.1 158.6 10    -0.0145
HOOD   ?    ?    ? P      D 19000101 0000    2.0833 GAU  0.00e+00 -1.00e+00 -1.00e+00 -1.00e+00 >    2.1961   -0.0240    1.1646    3.4492   -5.7585   -1.5120    7.0357 150.28 150.3 149.1 10    -0.0080
HOOD   ?    ?    ? S      ? 19000101 0000    3.6041 GAU  0.00e+00 -1.00e+00 -1.00e+00 -1.00e+00 >    3.6894    0.0079    1.2159    3.4492   -5.7585   -1.5120    7.0357 150.28 150.3 149.1 10    -0.0124
TDH    ?    ?    ? P      U 19000101 0000    2.6043 GAU  0.00e+00 -1.00e+00 -1.00e+00 -1.00e+00 >    2.7015    0.0144    1.1981   -7.5532   -9.3465   -1.5390   12.2685 217.77 217.8 133.2 10    -0.0308
TDH    ?    ?    ? S      ? 19000101 0000    4.5054 GAU  0.00e+00 -1.00e+00 -1.00e+00 -1.00e+00 >    4.5385    0.0059    1.2194   -7.5532   -9.3465   -1.5390   12.2685 217.77 217.8 133.2 10     0.0418
VFP    ?    ?    ? P      D 19000101 0000    3.4835 GAU  0.00e+00 -1.00e+00 -1.00e+00 -1.00e+00 >    3.5544    0.0020    1.2236   17.9019   -6.2094   -1.7220   19.1030 110.09 110.1 120.4 10     0.0079
VFP    ?    ?    ? S      ? 19000101 0000    6.0264 GAU  0.00e+00 -1.00e+00 -1.00e+00 -1.00e+00 >    5.9714   -0.0048    1.1356   17.9019   -6.2094   -1.7220   19.1030 110.09 110.1 120.4 10     0.1406
END_PHASE
END_NLLOC

