<?xml version="1.0" encoding="UTF-8"?>
<seiscomp xmlns="http://geofon.gfz-potsdam.de/ns/seiscomp3-schema/0.10" version="0.10">
  <EventParameters>
    <pick publicID="20211018.000059.66-AIC-CC.YOCR..BHZ">
      <time>
        <value>2021-10-18T00:00:59.66Z</value>
      </time>
      <waveformID networkCode="CC" stationCode="YOCR" channelCode="BHZ"/>
      <methodID>AIC</methodID>
      <phaseHint>P</phaseHint>
      <evaluationMode>automatic</evaluationMode>
      <creationInfo>
        <agencyID>VDAP</agencyID>
        <author>scautopick@raung</author>
        <creationTime>2021-11-18T20:36:36.518378Z</creationTime>
      </creationInfo>
    </pick>
    <pick publicID="20211018.000410.02-AIC-CC.SHRK..BHZ">
      <time>
        <value>2021-10-18T00:04:10.02Z</value>
      </time>
      <waveformID networkCode="CC" stationCode="SHRK" channelCode="BHZ"/>
      <methodID>AIC</methodID>
      <phaseHint>P</phaseHint>
      <evaluationMode>automatic</evaluationMode>
      <creationInfo>
        <agencyID>VDAP</agencyID>
        <author>scautopick@raung</author>
        <creationTime>2021-11-18T20:36:36.585473Z</creationTime>
      </creationInfo>
    </pick>
    <pick publicID="20211018.000523.62-AIC-CC.PALM..BHZ">
      <time>
        <value>2021-10-18T00:05:23.62Z</value>
      </time>
      <waveformID networkCode="CC" stationCode="PALM" channelCode="BHZ"/>
      <methodID>AIC</methodID>
      <phaseHint>P</phaseHint>
      <evaluationMode>automatic</evaluationMode>
      <creationInfo>
        <agencyID>VDAP</agencyID>
        <author>scautopick@raung</author>
        <creationTime>2021-11-18T20:36:36.600197Z</creationTime>
      </creationInfo>
    </pick>
    <pick publicID="20211018.000641.22-AIC-CC.HIYU..BHZ">
      <time>
        <value>2021-10-18T00:06:41.22Z</value>
      </time>
      <waveformID networkCode="CC" stationCode="HIYU" channelCode="BHZ"/>
      <methodID>AIC</methodID>
      <phaseHint>P</phaseHint>
      <evaluationMode>automatic</evaluationMode>
      <creationInfo>
        <agencyID>VDAP</agencyID>
        <author>scautopick@raung</author>
        <creationTime>2021-11-18T20:36:36.633488Z</creationTime>
      </creationInfo>
    </pick>
    <pick publicID="20211018.000726.64-AIC-CC.PALM..BHZ">
      <time>
        <value>2021-10-18T00:07:26.64Z</value>
      </time>
      <waveformID networkCode="CC" stationCode="PALM" channelCode="BHZ"/>
      <methodID>AIC</methodID>
      <phaseHint>P</phaseHint>
      <evaluationMode>automatic</evaluationMode>
      <creationInfo>
        <agencyID>VDAP</agencyID>
        <author>scautopick@raung</author>
        <creationTime>2021-11-18T20:36:36.64608Z</creationTime>
      </creationInfo>
    </pick>
    <pick publicID="20211018.001040.32-AIC-CC.YOCR..BHZ">
      <time>
        <value>2021-10-18T00:10:40.32Z</value>
      </time>
      <waveformID networkCode="CC" stationCode="YOCR" channelCode="BHZ"/>
      <methodID>AIC</methodID>
      <phaseHint>P</phaseHint>
      <evaluationMode>automatic</evaluationMode>
      <creationInfo>
        <agencyID>VDAP</agencyID>
        <author>scautopick@raung</author>
        <creationTime>2021-11-18T20:36:36.716163Z</creationTime>
      </creationInfo>
    </pick>
    <pick publicID="20211018.001616.56-AIC-UW.TDH..EHZ">
      <time>
        <value>2021-10-18T00:16:16.569988Z</value>
      </time>
      <waveformID networkCode="UW" stationCode="TDH" channelCode="EHZ"/>
      <methodID>AIC</methodID>
      <phaseHint>P</phaseHint>
      <evaluationMode>automatic</evaluationMode>
      <creationInfo>
        <agencyID>VDAP</agencyID>
        <author>scautopick@raung</author>
        <creationTime>2021-11-18T20:36:36.786218Z</creationTime>
      </creationInfo>
    </pick>
    <pick publicID="20211018.001740.77-AIC-UW.TDH..EHZ">
      <time>
        <value>2021-10-18T00:17:40.779988Z</value>
      </time>
      <waveformID networkCode="UW" stationCode="TDH" channelCode="EHZ"/>
      <methodID>AIC</methodID>
      <phaseHint>P</phaseHint>
      <evaluationMode>automatic</evaluationMode>
      <creationInfo>
        <agencyID>VDAP</agencyID>
        <author>scautopick@raung</author>
        <creationTime>2021-11-18T20:36:36.81179Z</creationTime>
      </creationInfo>
    </pick>
    <pick publicID="20211018.002039.41-AIC-UW.TDH..EHZ">
      <time>
        <value>2021-10-18T00:20:39.419988Z</value>
      </time>
      <waveformID networkCode="UW" stationCode="TDH" channelCode="EHZ"/>
      <methodID>AIC</methodID>
      <phaseHint>P</phaseHint>
      <evaluationMode>automatic</evaluationMode>
      <creationInfo>
        <agencyID>VDAP</agencyID>
        <author>scautopick@raung</author>
        <creationTime>2021-11-18T20:36:36.866544Z</creationTime>
      </creationInfo>
    </pick>
    <pick publicID="20211018.002127.22-AIC-CC.HIYU..BHZ">
      <time>
        <value>2021-10-18T00:21:27.22Z</value>
      </time>
      <waveformID networkCode="CC" stationCode="HIYU" channelCode="BHZ"/>
      <methodID>AIC</methodID>
      <phaseHint>P</phaseHint>
      <evaluationMode>automatic</evaluationMode>
      <creationInfo>
        <agencyID>VDAP</agencyID>
        <author>scautopick@raung</author>
        <creationTime>2021-11-18T20:36:36.889918Z</creationTime>
      </creationInfo>
    </pick>
    <pick publicID="20211018.002546.62-AIC-CC.PALM..BHZ">
      <time>
        <value>2021-10-18T00:25:46.62Z</value>
      </time>
      <waveformID networkCode="CC" stationCode="PALM" channelCode="BHZ"/>
      <methodID>AIC</methodID>
      <phaseHint>P</phaseHint>
      <evaluationMode>automatic</evaluationMode>
      <creationInfo>
        <agencyID>VDAP</agencyID>
        <author>scautopick@raung</author>
        <creationTime>2021-11-18T20:36:36.949854Z</creationTime>
      </creationInfo>
    </pick>
    <pick publicID="20211018.002657.84-AIC-CC.YOCR..BHZ">
      <time>
        <value>2021-10-18T00:26:57.84Z</value>
      </time>
      <waveformID networkCode="CC" stationCode="YOCR" channelCode="BHZ"/>
      <methodID>AIC</methodID>
      <phaseHint>P</phaseHint>
      <evaluationMode>automatic</evaluationMode>
      <creationInfo>
        <agencyID>VDAP</agencyID>
        <author>scautopick@raung</author>
        <creationTime>2021-11-18T20:36:36.972129Z</creationTime>
      </creationInfo>
    </pick>
    <pick publicID="20211018.002836.00-AIC-UW.TDH..EHZ">
      <time>
        <value>2021-10-18T00:28:36.009988Z</value>
      </time>
      <waveformID networkCode="UW" stationCode="TDH" channelCode="EHZ"/>
      <methodID>AIC</methodID>
      <phaseHint>P</phaseHint>
      <evaluationMode>automatic</evaluationMode>
      <creationInfo>
        <agencyID>VDAP</agencyID>
        <author>scautopick@raung</author>
        <creationTime>2021-11-18T20:36:37.002116Z</creationTime>
      </creationInfo>
    </pick>
    <pick publicID="20211018.002954.64-AIC-CC.HIYU..BHZ">
      <time>
        <value>2021-10-18T00:29:54.64Z</value>
      </time>
      <waveformID networkCode="CC" stationCode="HIYU" channelCode="BHZ"/>
      <methodID>AIC</methodID>
      <phaseHint>P</phaseHint>
      <evaluationMode>automatic</evaluationMode>
      <creationInfo>
        <agencyID>VDAP</agencyID>
        <author>scautopick@raung</author>
        <creationTime>2021-11-18T20:36:37.02884Z</creationTime>
      </creationInfo>
    </pick>
    <pick publicID="20211018.003107.86-AIC-UW.TDH..EHZ">
      <time>
        <value>2021-10-18T00:31:07.869988Z</value>
      </time>
      <waveformID networkCode="UW" stationCode="TDH" channelCode="EHZ"/>
      <methodID>AIC</methodID>
      <phaseHint>P</phaseHint>
      <evaluationMode>automatic</evaluationMode>
      <creationInfo>
        <agencyID>VDAP</agencyID>
        <author>scautopick@raung</author>
        <creationTime>2021-11-18T20:36:37.060183Z</creationTime>
      </creationInfo>
    </pick>
    <pick publicID="20211018.003139.64-AIC-CC.HIYU..BHZ">
      <time>
        <value>2021-10-18T00:31:39.64Z</value>
      </time>
      <waveformID networkCode="CC" stationCode="HIYU" channelCode="BHZ"/>
      <methodID>AIC</methodID>
      <phaseHint>P</phaseHint>
      <evaluationMode>automatic</evaluationMode>
      <creationInfo>
        <agencyID>VDAP</agencyID>
        <author>scautopick@raung</author>
        <creationTime>2021-11-18T20:36:37.084241Z</creationTime>
      </creationInfo>
    </pick>
    <pick publicID="20211018.003300.16-AIC-UW.TDH..EHZ">
      <time>
        <value>2021-10-18T00:33:00.169988Z</value>
      </time>
      <waveformID networkCode="UW" stationCode="TDH" channelCode="EHZ"/>
      <methodID>AIC</methodID>
      <phaseHint>P</phaseHint>
      <evaluationMode>automatic</evaluationMode>
      <creationInfo>
        <agencyID>VDAP</agencyID>
        <author>scautopick@raung</author>
        <creationTime>2021-11-18T20:36:37.105069Z</creationTime>
      </creationInfo>
    </pick>
    <pick publicID="20211018.003545.76-AIC-UW.TDH..EHZ">
      <time>
        <value>2021-10-18T00:35:45.769988Z</value>
      </time>
      <waveformID networkCode="UW" stationCode="TDH" channelCode="EHZ"/>
      <methodID>AIC</methodID>
      <phaseHint>P</phaseHint>
      <evaluationMode>automatic</evaluationMode>
      <creationInfo>
        <agencyID>VDAP</agencyID>
        <author>scautopick@raung</author>
        <creationTime>2021-11-18T20:36:37.154529Z</creationTime>
      </creationInfo>
    </pick>
    <pick publicID="20211018.003707.62-AIC-UW.TDH..EHZ">
      <time>
        <value>2021-10-18T00:37:07.629988Z</value>
      </time>
      <waveformID networkCode="UW" stationCode="TDH" channelCode="EHZ"/>
      <methodID>AIC</methodID>
      <phaseHint>P</phaseHint>
      <evaluationMode>automatic</evaluationMode>
      <creationInfo>
        <agencyID>VDAP</agencyID>
        <author>scautopick@raung</author>
        <creationTime>2021-11-18T20:36:37.181759Z</creationTime>
      </creationInfo>
    </pick>
    <pick publicID="20211018.003828.90-AIC-UW.TDH..EHZ">
      <time>
        <value>2021-10-18T00:38:28.909988Z</value>
      </time>
      <waveformID networkCode="UW" stationCode="TDH" channelCode="EHZ"/>
      <methodID>AIC</methodID>
      <phaseHint>P</phaseHint>
      <evaluationMode>automatic</evaluationMode>
      <creationInfo>
        <agencyID>VDAP</agencyID>
        <author>scautopick@raung</author>
        <creationTime>2021-11-18T20:36:37.212561Z</creationTime>
      </creationInfo>
    </pick>
    <pick publicID="20211018.003841.68-AIC-CC.HIYU..BHZ">
      <time>
        <value>2021-10-18T00:38:41.68Z</value>
      </time>
      <waveformID networkCode="CC" stationCode="HIYU" channelCode="BHZ"/>
      <methodID>AIC</methodID>
      <phaseHint>P</phaseHint>
      <evaluationMode>automatic</evaluationMode>
      <creationInfo>
        <agencyID>VDAP</agencyID>
        <author>scautopick@raung</author>
        <creationTime>2021-11-18T20:36:37.221269Z</creationTime>
      </creationInfo>
    </pick>
    <pick publicID="20211018.003834.44-AIC-CC.SHRK..BHZ">
      <time>
        <value>2021-10-18T00:38:34.44Z</value>
      </time>
      <waveformID networkCode="CC" stationCode="SHRK" channelCode="BHZ"/>
      <methodID>AIC</methodID>
      <phaseHint>P</phaseHint>
      <evaluationMode>automatic</evaluationMode>
      <creationInfo>
        <agencyID>VDAP</agencyID>
        <author>scautopick@raung</author>
        <creationTime>2021-11-18T20:36:37.224484Z</creationTime>
      </creationInfo>
    </pick>
    <pick publicID="20211018.004018.24-AIC-CC.HIYU..BHZ">
      <time>
        <value>2021-10-18T00:40:18.24Z</value>
      </time>
      <waveformID networkCode="CC" stationCode="HIYU" channelCode="BHZ"/>
      <methodID>AIC</methodID>
      <phaseHint>P</phaseHint>
      <evaluationMode>automatic</evaluationMode>
      <creationInfo>
        <agencyID>VDAP</agencyID>
        <author>scautopick@raung</author>
        <creationTime>2021-11-18T20:36:37.261997Z</creationTime>
      </creationInfo>
    </pick>
    <pick publicID="20211018.004039.27-AIC-UW.TDH..EHZ">
      <time>
        <value>2021-10-18T00:40:39.279988Z</value>
      </time>
      <waveformID networkCode="UW" stationCode="TDH" channelCode="EHZ"/>
      <methodID>AIC</methodID>
      <phaseHint>P</phaseHint>
      <evaluationMode>automatic</evaluationMode>
      <creationInfo>
        <agencyID>VDAP</agencyID>
        <author>scautopick@raung</author>
        <creationTime>2021-11-18T20:36:37.283219Z</creationTime>
      </creationInfo>
    </pick>
    <pick publicID="20211018.004258.26-AIC-CC.HIYU..BHZ">
      <time>
        <value>2021-10-18T00:42:58.26Z</value>
      </time>
      <waveformID networkCode="CC" stationCode="HIYU" channelCode="BHZ"/>
      <methodID>AIC</methodID>
      <phaseHint>P</phaseHint>
      <evaluationMode>automatic</evaluationMode>
      <creationInfo>
        <agencyID>VDAP</agencyID>
        <author>scautopick@raung</author>
        <creationTime>2021-11-18T20:36:37.324267Z</creationTime>
      </creationInfo>
    </pick>
    <pick publicID="20211018.004313.88-AIC-UW.TDH..EHZ">
      <time>
        <value>2021-10-18T00:43:13.889988Z</value>
      </time>
      <waveformID networkCode="UW" stationCode="TDH" channelCode="EHZ"/>
      <methodID>AIC</methodID>
      <phaseHint>P</phaseHint>
      <evaluationMode>automatic</evaluationMode>
      <creationInfo>
        <agencyID>VDAP</agencyID>
        <author>scautopick@raung</author>
        <creationTime>2021-11-18T20:36:37.338291Z</creationTime>
      </creationInfo>
    </pick>
    <pick publicID="20211018.004608.24-AIC-CC.HIYU..BHZ">
      <time>
        <value>2021-10-18T00:46:08.24Z</value>
      </time>
      <waveformID networkCode="CC" stationCode="HIYU" channelCode="BHZ"/>
      <methodID>AIC</methodID>
      <phaseHint>P</phaseHint>
      <evaluationMode>automatic</evaluationMode>
      <creationInfo>
        <agencyID>VDAP</agencyID>
        <author>scautopick@raung</author>
        <creationTime>2021-11-18T20:36:37.385709Z</creationTime>
      </creationInfo>
    </pick>
    <pick publicID="20211018.004808.56-AIC-UW.TDH..EHZ">
      <time>
        <value>2021-10-18T00:48:08.569988Z</value>
      </time>
      <waveformID networkCode="UW" stationCode="TDH" channelCode="EHZ"/>
      <methodID>AIC</methodID>
      <phaseHint>P</phaseHint>
      <evaluationMode>automatic</evaluationMode>
      <creationInfo>
        <agencyID>VDAP</agencyID>
        <author>scautopick@raung</author>
        <creationTime>2021-11-18T20:36:37.408245Z</creationTime>
      </creationInfo>
    </pick>
    <pick publicID="20211018.004908.24-AIC-CC.HIYU..BHZ">
      <time>
        <value>2021-10-18T00:49:08.24Z</value>
      </time>
      <waveformID networkCode="CC" stationCode="HIYU" channelCode="BHZ"/>
      <methodID>AIC</methodID>
      <phaseHint>P</phaseHint>
      <evaluationMode>automatic</evaluationMode>
      <creationInfo>
        <agencyID>VDAP</agencyID>
        <author>scautopick@raung</author>
        <creationTime>2021-11-18T20:36:37.435181Z</creationTime>
      </creationInfo>
    </pick>
    <pick publicID="20211018.005019.34-AIC-CC.HIYU..BHZ">
      <time>
        <value>2021-10-18T00:50:19.34Z</value>
      </time>
      <waveformID networkCode="CC" stationCode="HIYU" channelCode="BHZ"/>
      <methodID>AIC</methodID>
      <phaseHint>P</phaseHint>
      <evaluationMode>automatic</evaluationMode>
      <creationInfo>
        <agencyID>VDAP</agencyID>
        <author>scautopick@raung</author>
        <creationTime>2021-11-18T20:36:37.457729Z</creationTime>
      </creationInfo>
    </pick>
    <pick publicID="20211018.005116.72-AIC-CC.BRSP..BHZ">
      <time>
        <value>2021-10-18T00:51:16.72Z</value>
      </time>
      <waveformID networkCode="CC" stationCode="BRSP" channelCode="BHZ"/>
      <methodID>AIC</methodID>
      <phaseHint>P</phaseHint>
      <evaluationMode>automatic</evaluationMode>
      <creationInfo>
        <agencyID>VDAP</agencyID>
        <author>scautopick@raung</author>
        <creationTime>2021-11-18T20:36:37.473583Z</creationTime>
      </creationInfo>
    </pick>
    <pick publicID="20211018.005129.26-AIC-CC.LSON..BHZ">
      <time>
        <value>2021-10-18T00:51:29.26Z</value>
      </time>
      <waveformID networkCode="CC" stationCode="LSON" channelCode="BHZ"/>
      <methodID>AIC</methodID>
      <phaseHint>P</phaseHint>
      <evaluationMode>automatic</evaluationMode>
      <creationInfo>
        <agencyID>VDAP</agencyID>
        <author>scautopick@raung</author>
        <creationTime>2021-11-18T20:36:37.479428Z</creationTime>
      </creationInfo>
    </pick>
    <pick publicID="20211018.005129.86-AIC-CC.TIMB..BHZ">
      <time>
        <value>2021-10-18T00:51:29.86Z</value>
      </time>
      <waveformID networkCode="CC" stationCode="TIMB" channelCode="BHZ"/>
      <methodID>AIC</methodID>
      <phaseHint>P</phaseHint>
      <evaluationMode>automatic</evaluationMode>
      <creationInfo>
        <agencyID>VDAP</agencyID>
        <author>scautopick@raung</author>
        <creationTime>2021-11-18T20:36:37.483078Z</creationTime>
      </creationInfo>
    </pick>
    <pick publicID="20211018.005129.08-AIC-CC.YOCR..BHZ">
      <time>
        <value>2021-10-18T00:51:29.08Z</value>
      </time>
      <waveformID networkCode="CC" stationCode="YOCR" channelCode="BHZ"/>
      <methodID>AIC</methodID>
      <phaseHint>P</phaseHint>
      <evaluationMode>automatic</evaluationMode>
      <creationInfo>
        <agencyID>VDAP</agencyID>
        <author>scautopick@raung</author>
        <creationTime>2021-11-18T20:36:37.486197Z</creationTime>
      </creationInfo>
    </pick>
    <pick publicID="20211018.005116.03-AIC-UW.HOOD..HHZ">
      <time>
        <value>2021-10-18T00:51:16.03Z</value>
      </time>
      <waveformID networkCode="UW" stationCode="HOOD" channelCode="HHZ"/>
      <methodID>AIC</methodID>
      <phaseHint>P</phaseHint>
      <evaluationMode>automatic</evaluationMode>
      <creationInfo>
        <agencyID>VDAP</agencyID>
        <author>scautopick@raung</author>
        <creationTime>2021-11-18T20:36:37.489444Z</creationTime>
      </creationInfo>
    </pick>
    <pick publicID="20211018.005129.56-AIC-CC.PALM..BHZ">
      <time>
        <value>2021-10-18T00:51:29.56Z</value>
      </time>
      <waveformID networkCode="CC" stationCode="PALM" channelCode="BHZ"/>
      <methodID>AIC</methodID>
      <phaseHint>P</phaseHint>
      <evaluationMode>automatic</evaluationMode>
      <creationInfo>
        <agencyID>VDAP</agencyID>
        <author>scautopick@raung</author>
        <creationTime>2021-11-18T20:36:37.493935Z</creationTime>
      </creationInfo>
    </pick>
    <pick publicID="20211018.005631.24-AIC-CC.HIYU..BHZ">
      <time>
        <value>2021-10-18T00:56:31.24Z</value>
      </time>
      <waveformID networkCode="CC" stationCode="HIYU" channelCode="BHZ"/>
      <methodID>AIC</methodID>
      <phaseHint>P</phaseHint>
      <evaluationMode>automatic</evaluationMode>
      <creationInfo>
        <agencyID>VDAP</agencyID>
        <author>scautopick@raung</author>
        <creationTime>2021-11-18T20:36:37.612498Z</creationTime>
      </creationInfo>
    </pick>
    <pick publicID="20211018.005717.26-AIC-CC.SHRK..BHZ">
      <time>
        <value>2021-10-18T00:57:17.26Z</value>
      </time>
      <waveformID networkCode="CC" stationCode="SHRK" channelCode="BHZ"/>
      <methodID>AIC</methodID>
      <phaseHint>P</phaseHint>
      <evaluationMode>automatic</evaluationMode>
      <creationInfo>
        <agencyID>VDAP</agencyID>
        <author>scautopick@raung</author>
        <creationTime>2021-11-18T20:36:37.631635Z</creationTime>
      </creationInfo>
    </pick>
    <pick publicID="20211018.005959.96-AIC-UW.VLL..EHZ">
      <time>
        <value>2021-10-18T00:59:59.969988Z</value>
      </time>
      <waveformID networkCode="UW" stationCode="VLL" channelCode="EHZ"/>
      <methodID>AIC</methodID>
      <phaseHint>P</phaseHint>
      <evaluationMode>automatic</evaluationMode>
